{
    "links": {
        "self": "http://www.neowsapp.com/rest/v1/neo/3395957?api_key=iIulBulltgU6a56xZRHN4H3l9WmuAYTsLGpBGhQ2"
    },
    "id": "3395957",
    "neo_reference_id": "3395957",
    "name": "(2007 WN3)",
    "designation": "2007 WN3",
    "nasa_jpl_url": "http://ssd.jpl.nasa.gov/sbdb.cgi?sstr=3395957",
    "absolute_magnitude_h": 21.4,
    "estimated_diameter": {
        "kilometers": {
            "estimated_diameter_min": 0.1394938229,
            "estimated_diameter_max": 0.3119176705
        },
        "meters": {
            "estimated_diameter_min": 139.4938229344,
            "estimated_diameter_max": 311.9176705226
        },
        "miles": {
            "estimated_diameter_min": 0.0866774163,
            "estimated_diameter_max": 0.1938165949
        },
        "feet": {
            "estimated_diameter_min": 457.6569140361,
            "estimated_diameter_max": 1023.3519701574
        }
    },
    "is_potentially_hazardous_asteroid": false,
    "close_approach_data": [
        {
            "close_approach_date": "2007-10-27",
            "close_approach_date_full": "2007-Oct-27 07:37",
            "epoch_date_close_approach": 1193470620000,
            "relative_velocity": {
                "kilometers_per_second": "15.6468476807",
                "kilometers_per_hour": "56328.6516504437",
                "miles_per_hour": "35000.4335769104"
            },
            "miss_distance": {
                "astronomical": "0.1463573188",
                "lunar": "56.9329970132",
                "kilometers": "21894743.151390956",
                "miles": "13604762.5330529528"
            },
            "orbiting_body": "Earth"
        }
    ],
    "orbital_data": {
        "orbit_id": "7",
        "orbit_determination_date": "2017-04-06 09:05:04",
        "first_observation_date": "2007-11-18",
        "last_observation_date": "2007-12-03",
        "data_arc_in_days": 15,
        "observations_used": 37,
        "orbit_uncertainty": "8",
        "minimum_orbit_intersection": ".087078",
        "jupiter_tisserand_invariant": "3.123",
        "epoch_osculation": "2454425.5",
        "eccentricity": ".6279201431589136",
        "semi_major_axis": "2.541599712211085",
        "inclination": "8.602797613573328",
        "ascending_node_longitude": "54.59411954851176",
        "orbital_period": "1479.991277490477",
        "perihelion_distance": ".9456780570668468",
        "perihelion_argument": "289.9051952807051",
        "aphelion_distance": "4.137521367355323",
        "perihelion_time": "2454367.643995067104",
        "mean_anomaly": "14.07316522240556",
        "mean_motion": ".2432446768270339",
        "equinox": "J2000",
        "orbit_class": {
            "orbit_class_type": "APO",
            "orbit_class_description": "Near-Earth asteroid orbits which cross the Earth’s orbit similar to that of 1862 Apollo",
            "orbit_class_range": "a (semi-major axis) > 1.0 AU; q (perihelion) < 1.017 AU"
        }
    },
    "is_sentry_object": false
}